[{"OBJECT_NAME":"ONEWEB-0314","OBJECT_ID":"2021-075AB","EPOCH":"2026-03-09T21:49:53.911200","MEAN_MOTION":13.17648657,"ECCENTRICITY":0.00020663,"INCLINATION":87.9162,"RA_OF_ASC_NODE":25.5573,"ARG_OF_PERICENTER":69.4415,"MEAN_ANOMALY":290.6938,"EPHEMERIS_TYPE":0,"CLASSIFICATION_TYPE":"U","NORAD_CAT_ID":49100,"ELEMENT_SET_NO":999,"REV_AT_EPOCH":22049,"BSTAR":2.897504e-5,"MEAN_MOTION_DOT":2.4e-7,"MEAN_MOTION_DDOT":0},{"OBJECT_NAME":"SL-14 DEB","OBJECT_ID":"1991-056BD","EPOCH":"2026-03-09T19:16:38.934624","MEAN_MOTION":13.15511547,"ECCENTRICITY":0.0026402,"INCLINATION":82.5605,"RA_OF_ASC_NODE":217.0374,"ARG_OF_PERICENTER":87.5299,"MEAN_ANOMALY":272.8845,"EPHEMERIS_TYPE":0,"CLASSIFICATION_TYPE":"U","NORAD_CAT_ID":45315,"ELEMENT_SET_NO":999,"REV_AT_EPOCH":28954,"BSTAR":0.00066652509,"MEAN_MOTION_DOT":2.64e-6,"MEAN_MOTION_DDOT":0}]
